[{"OBJECT_NAME":"OBJECT H","OBJECT_ID":"2023-091H","EPOCH":"2026-03-09T22:34:46.487712","MEAN_MOTION":15.26380881,"ECCENTRICITY":0.00117854,"INCLINATION":97.5166,"RA_OF_ASC_NODE":131.4381,"ARG_OF_PERICENTER":104.1062,"MEAN_ANOMALY":256.1487,"EPHEMERIS_TYPE":0,"CLASSIFICATION_TYPE":"U","NORAD_CAT_ID":57173,"ELEMENT_SET_NO":999,"REV_AT_EPOCH":14915,"BSTAR":0.00056321781,"MEAN_MOTION_DOT":0.00014617,"MEAN_MOTION_DDOT":0},{"OBJECT_NAME":"DELTA 2 DEB [DPAF]","OBJECT_ID":"2006-016D","EPOCH":"2026-03-09T21:07:54.254784","MEAN_MOTION":15.23406385,"ECCENTRICITY":0.00032182,"INCLINATION":98.3285,"RA_OF_ASC_NODE":343.8839,"ARG_OF_PERICENTER":354.4951,"MEAN_ANOMALY":5.6247,"EPHEMERIS_TYPE":0,"CLASSIFICATION_TYPE":"U","NORAD_CAT_ID":29110,"ELEMENT_SET_NO":999,"REV_AT_EPOCH":6863,"BSTAR":0.0017599055,"MEAN_MOTION_DOT":0.00042014,"MEAN_MOTION_DDOT":0}]
